TDRS 3                  
1 19548U 88091B   17233.47920174 -.00000321  00000-0  00000+0 0  9999
2 19548  14.4455   7.2912 0033832 308.5428 124.3347  1.00267195 93065
SKYNET 4C               
1 20776U 90079A   17233.03478346  .00000104  00000-0  00000+0 0  9992
2 20776  13.8539  15.4541 0002351 145.2975 214.7676  1.00273859 98631
TDRS 5                  
1 21639U 91054B   17233.22721146  .00000063  00000-0  00000+0 0  9999
2 21639  14.4147  20.7222 0020644 348.4559 234.6283  1.00271450 95409
TDRS 6                  
1 22314U 93003B   17232.90399833 -.00000316  00000-0  00000-0 0  9997
2 22314  13.9490  23.6718 0002514 256.0206 329.1318  1.00265717 90139
ASTRA 1D                
1 23331U 94070A   17232.46135549 -.00000294  00000-0  00000+0 0  9999
2 23331   7.6561  48.8116 0003623  96.5437 277.2107  1.00272255 83859
BRASILSAT B2            
1 23536U 95016A   17233.47903216 -.00000307  00000-0  00000+0 0  9998
2 23536   7.2807  50.6747 0001597 118.6777 265.0880  1.00271117 82013
AMSC 1                  
1 23553U 95019A   17233.47985894 -.00000141  00000-0  00000+0 0  9998
2 23553  10.1616  39.2953 0003425 133.2762 226.8593  1.00272924 81869
TDRS 7                  
1 23613U 95035B   17233.07086043 -.00000223  00000-0  00000+0 0  9998
2 23613  14.9962  14.4231 0026727   3.6611  61.7821  1.00276647 80842
ECHOSTAR 1              
1 23754U 95073A   17233.20396508 -.00000272  00000-0  00000+0 0  9995
2 23754   0.9470  89.9359 0002655  81.6957 154.2233  1.00269551 79139
INMARSAT 3-F1           
1 23839U 96020A   17233.09424469 -.00000022  00000-0  00000+0 0  9990
2 23839   4.1031  67.2047 0005606  85.1708 275.6543  1.00270723 78311
ASTRA 1F                
1 23842U 96021A   17232.90671032  .00000108  00000-0  00000-0 0  9999
2 23842   0.0800 298.1390 0003830 225.7991 176.1861  1.00273362 20039
MSAT M1                 
1 23846U 96022A   17232.51938367 -.00000111  00000-0  00000+0 0  9992
2 23846   7.8447  48.3210 0004796 106.6030 253.5988  1.00272774 78123
INMARSAT 3-F2           
1 24307U 96053A   17233.31368731 -.00000156  00000-0  00000+0 0  9999
2 24307   2.7551  77.4099 0003999  66.2108 283.6319  1.00271651 76713
AMC-1 (GE-1)            
1 24315U 96054A   17232.68108236  .00000028  00000-0  00000-0 0  9998
2 24315   1.6994  84.7949 0002772  91.5138 268.9064  1.00270812 14014
AFRICASAT-2 (MEASAT-2)  
1 24653U 96063B   17233.27906295 -.00000254  00000-0  00000+0 0  9991
2 24653   7.5801  49.2256 0009261 171.9226 357.1188  1.00271505 76048
INMARSAT 3-F3           
1 24674U 96070A   17233.45046928  .00000006  00000-0  00000+0 0  9994
2 24674   3.5556  71.4561 0005372  81.1499 157.5973  1.00272527 75669
AMC-2 (GE-2)            
1 24713U 97002A   17233.53807201 -.00000241  00000-0  00000+0 0  9994
2 24713   4.4534  65.6014 0004695  80.9846 292.3065  1.00272201 26022
INTELSAT 26 (IS-26)     
1 24732U 97007A   17233.00675956 -.00000038  00000-0  00000+0 0  9996
2 24732   7.5567  49.5574 0002639 106.3056 241.8807  1.00271954 74960
GALAXY 25 (G-25)        
1 24812U 97026A   17232.34512002 -.00000193  00000-0  00000+0 0  9996
2 24812   0.0088  77.6297 0003566  72.9458 209.4303  1.00271717 74040
ABS-3                   
1 24901U 97042A   17232.80671051 -.00000144  00000-0  00000+0 0  9990
2 24901   5.0022  62.9005 0001506 105.9011 170.1559  1.00188061 73214
INTELSAT 5 (IS-5)       
1 24916U 97046A   17231.84944951 -.00000171  00000-0  00000+0 0  9995
2 24916   3.6667  70.7894 0002632  88.3564 271.9226  1.00271490 73298
AMC-3 (GE-3)            
1 24936U 97050A   17233.35376203 -.00000291  00000-0  00000+0 0  9992
2 24936   0.5141  92.2932 0002419  49.8149 243.0929  1.00272121 73145
NSS-5                   
1 24957U 97053A   17233.13565178  .00000078  00000-0  00000+0 0  9997
2 24957   3.9604  68.9815 0003186  73.4516 286.5410  1.00270099 72937
ECHOSTAR 3              
1 25004U 97059A   17231.56112870 -.00000206  00000-0  00000-0 0  9994
2 25004   2.2819  79.9859 0002992 137.6958 222.6163  1.00233111 72736
JCSAT-1B                
1 25067U 97075A   17233.38868698 -.00000015  00000-0  00000+0 0  9996
2 25067   5.6712  58.3848 0021090 110.1297 200.6924  0.98651790 72245
ASTRA 1G                
1 25071U 97076A   17233.13565178  .00000076  00000-0  00000+0 0  9998
2 25071   2.4519  78.1890 0002638  81.9049 269.4926  1.00274960 72221
BRASILSAT B3            
1 25152U 98006A   17232.45140963 -.00000313  00000-0  00000-0 0  9993
2 25152   4.1444  68.0006 0002798  80.0549 280.2250  1.00273434 11203
INMARSAT 3-F5           
1 25153U 98006B   17233.31192127 -.00000318  00000-0  00000+0 0  9993
2 25153   2.7018  74.0807 0004800  77.3195 236.7337  1.00271320 71584
NSS-806                 
1 25239U 98014A   17233.07198865 -.00000310  00000-0  00000+0 0  9997
2 25239   0.1146 301.3483 0003974 203.4357 163.1891  1.00274308 71343
CHINASAT 5A (ZX 5A)     
1 25354U 98033A   17233.37517502 -.00000385  00000-0  00000+0 0  9994
2 25354   1.3785  86.6448 0003445 122.3172  21.4540  1.00264516 74939
THOR III                
1 25358U 98035A   17233.25963584 -.00000072  00000-0  00000+0 0  9995
2 25358   5.5325  58.7081 0001903  97.6606 262.5772  1.00273210 70409
INTELSAT 805 (IS-805)   
1 25371U 98037A   17232.74143213 -.00000062  00000-0  00000-0 0  9994
2 25371   0.1453  95.2084 0002751  55.9073 254.0343  1.00272049 70233
ASTRA 2A                
1 25462U 98050A   17232.91715920 -.00000390  00000-0  00000+0 0  9992
2 25462   0.0777 256.6382 0002087 246.6310 269.8268  1.00272729 69436
AFRISTAR                
1 25515U 98063A   17233.11368698  .00000094  00000-0  00000+0 0  9994
2 25515   3.4212  69.5260 0003897  91.5262 230.4593  1.00273231 68810
JCSAT-4A                
1 25630U 99006A   17232.90254285 -.00000233  00000-0  00000+0 0  9998
2 25630   2.4236  79.7325 0004556  79.3293 285.2867  1.00271253 67698
SKYNET 4E               
1 25639U 99009B   17232.62476547 -.00000003  00000-0  00000+0 0  9991
2 25639  10.1873  28.0950 0002357 130.1707  41.7394  1.00271897 67700
ASIASAT 3S              
1 25657U 99013A   17233.24851209 -.00000268  00000-0  00000+0 0  9990
2 25657   2.6366  77.8998 0002802  48.5066  78.8348  1.00269300 67517
NIMIQ 1                 
1 25740U 99027A   17233.15601640 -.00000230  00000-0  00000+0 0  9999
2 25740   0.0725 282.2012 0002953 201.7800 175.3183  1.00272843 66892
ASTRA 1H                
1 25785U 99033A   17233.13372752  .00000107  00000-0  00000+0 0  9994
2 25785   3.9450  69.1340 0002627  75.4657 276.6590  1.00272568 66473
TELKOM 1                
1 25880U 99042A   17233.46785541 -.00000375  00000-0  00000+0 0  9998
2 25880   0.0184 136.3743 0001450  45.5279  64.5204  1.00269982 66052
ABS-7                   
1 25894U 99046A   17233.46299359 -.00000393  00000-0  00000+0 0  9994
2 25894   0.0266 226.2070 0001730 296.8111  89.7124  1.00269250 64839
ABS-6                   
1 25924U 99053A   17232.64405918 -.00000150  00000-0  00000+0 0  9996
2 25924   0.0709 286.5236 0003004 196.8413 236.6490  1.00274450 65566
TELSTAR 12 (ORION 2)    
1 25949U 99059A   17233.16573920 -.00000093  00000-0  00000+0 0  9992
2 25949   1.0685  88.6114 0002701  62.9014 128.6091  1.00271482 65217
AMC-4 (GE-4)            
1 25954U 99060A   17233.45817135  .00000056  00000-0  00000+0 0  9999
2 25954   0.0091 152.2517 0002795   7.2786 200.4809  1.00270291 65188
GALAXY 11 (G-11)        
1 26038U 99071A   17233.07065178  .00000106  00000-0  00000+0 0  9991
2 26038   0.0359  78.3283 0000704 338.1267 343.4545  1.00271056 64785
SUPERBIRD-B2            
1 26095U 00012A   17233.04632677 -.00000124  00000-0  00000+0 0  9993
2 26095   0.5341  93.8895 0002951  59.8778 354.4156  1.00272131 64128
ASIASTAR                
1 26107U 00016A   17232.94098833 -.00000364  00000-0  00000+0 0  9995
2 26107   1.8032  81.8007 0003982  70.5783 260.8129  1.00273850 63843
EUTELSAT 16C            
1 26243U 00019A   17233.11368698  .00000061  00000-0  00000+0 0  9991
2 26243   4.3842  65.9653 0002742  86.9177 232.1607  1.00271062 63477
EUTELSAT 80A            
1 26369U 00028A   17233.30323806 -.00000027  00000-0  00000+0 0  9996
2 26369   1.1470  85.4059 0003196  78.6569 281.1428  1.00061792 63171
TDRS 8                  
1 26388U 00034A   17231.99383469 -.00000255  00000-0  00000+0 0  9991
2 26388   7.5956  55.2847 0004201 195.0648 165.0752  1.00266170 62852
ECHOSTAR 6              
1 26402U 00038A   17232.53758858 -.00000178  00000-0  00000+0 0  9995
2 26402   4.3028  66.7727 0002896  90.0821 269.5153  1.00270983 62608
INTELSAT 9 (IS-9)       
1 26451U 00043A   17233.09405904 -.00000247  00000-0  00000+0 0  9995
2 26451   3.6557  71.0071 0002324  87.2523 175.7032  1.00272492 62538
BRASILSAT B4            
1 26469U 00046A   17232.57792161 -.00000200  00000-0  00000+0 0  9992
2 26469   1.7825  84.7413 0002294  69.0803 291.3115  1.00272723 62321
NILESAT 102             
1 26470U 00046B   17233.20574149 -.00000090  00000-0  00000+0 0  9996
2 26470   1.8118  83.4286 0003877  82.6633 230.6749  1.00270854 62336
ASTRA 2B                
1 26494U 00054A   17233.33458500 -.00000185  00000-0  00000+0 0  9992
2 26494   2.3416  78.8362 0004461  58.1561 293.6968  1.00271348 61925
AMC-7 (GE-7)            
1 26495U 00054B   17232.46118788  .00000058  00000-0  00000+0 0  9995
2 26495   0.0200  64.8651 0001271 118.1320 176.9876  1.00271750 61944
NSS-11 (AAP-1)          
1 26554U 00059A   17233.46785541 -.00000376  00000-0  00000+0 0  9998
2 26554   0.0619 288.8175 0002358 233.9800  83.7482  1.00270703 61865
N-SAT-110 (JCSAT-110)   
1 26559U 00060A   17233.00248318 -.00000382  00000-0  00000+0 0  9998
2 26559   0.0193 102.6114 0001331 331.8650   5.9785  1.00270915 61805
AMC-6 (GE-6)            
1 26580U 00067A   17232.73313184 -.00000246  00000-0  00000-0 0  9992
2 26580   0.0167 265.3648 0002373 260.5652 344.2529  1.00270400 61664
